ORBCOMM FM103           
1 40091U 14040F   25340.22126854  .00001524  00000+0  36111-3 0  9993
2 40091  47.0059 285.1665 0002202 331.5636  28.5129 14.58517358589216
ORBCOMM FM114           
1 41179U 15081A   25339.96418128  .00001101  00000+0  27081-3 0  9991
2 41179  47.0012 195.3386 0001686  47.4118 312.6910 14.58548278529548
ORBCOMM FM119           
1 41180U 15081B   25340.30246180  .00001605  00000+0  37869-3 0  9994
2 41180  46.9998 103.0974 0000769 165.8506 194.2401 14.58484136530843
ORBCOMM FM105           
1 41181U 15081C   25340.14907144  .00000604  00000+0  21463-3 0  9992
2 41181  47.0002 125.5650 0001467 352.3851   7.7007 14.45394263525621
ORBCOMM FM110           
1 41182U 15081D   25340.29672092  .00001600  00000+0  37708-3 0  9996
2 41182  47.0006 193.2733 0002807 264.9381  95.1184 14.58561573529462
ORBCOMM FM118           
1 41183U 15081E   25339.98866909  .00001070  00000+0  26415-3 0  9997
2 41183  47.0027 195.0251 0002953 226.9971 133.0668 14.58558413529521
ORBCOMM FM112           
1 41184U 15081F   25340.05988045  .00002444  00000+0  55654-3 0  9997
2 41184  47.0005 103.2272 0000887  11.3337 348.7568 14.58559924530757
ORBCOMM FM113           
1 41185U 15081G   25340.24261025  .00002042  00000+0  47114-3 0  9997
2 41185  47.0007 102.7168 0000510  25.9731 334.1180 14.58551648530765
